[{"OBJECT_NAME":"DAMPE","OBJECT_ID":"2015-078A","EPOCH":"2026-03-09T23:55:00.527232","MEAN_MOTION":15.30502084,"ECCENTRICITY":0.00138005,"INCLINATION":97.4588,"RA_OF_ASC_NODE":73.9866,"ARG_OF_PERICENTER":70.6942,"MEAN_ANOMALY":289.579,"EPHEMERIS_TYPE":0,"CLASSIFICATION_TYPE":"U","NORAD_CAT_ID":41173,"ELEMENT_SET_NO":999,"REV_AT_EPOCH":56937,"BSTAR":9.1158173e-5,"MEAN_MOTION_DOT":2.617e-5,"MEAN_MOTION_DDOT":0},{"OBJECT_NAME":"STARLINK-31760","OBJECT_ID":"2024-098M","EPOCH":"2026-03-08T23:23:57.732000","MEAN_MOTION":15.27590493,"ECCENTRICITY":0.00015473,"INCLINATION":43.0007,"RA_OF_ASC_NODE":282.3086,"ARG_OF_PERICENTER":268.2313,"MEAN_ANOMALY":91.8362,"EPHEMERIS_TYPE":0,"CLASSIFICATION_TYPE":"U","NORAD_CAT_ID":59869,"ELEMENT_SET_NO":999,"REV_AT_EPOCH":10173,"BSTAR":-0.00012118674,"MEAN_MOTION_DOT":-3.597e-5,"MEAN_MOTION_DDOT":0}]
